API VERSION: 1.2
API SOURCE: NASA/JPL Horizons API



*******************************************************************************
Ephemeris / API_USER Sat Jul 11 19:36:31 2026 Pasadena, USA      / Horizons    
*******************************************************************************
Target body name: 2060 Chiron (1977 UB)           {source: JPL#171}
Center body name: Earth (399)                     {source: DE441}
Center-site name: GEOCENTRIC
*******************************************************************************
Start time      : A.D. 1905-Jan-01 00:00:00.0000 UT      
Stop  time      : A.D. 1910-Jan-01 00:00:00.0000 UT      
Step-size       : 2880 minutes
*******************************************************************************
Target pole/equ : undefined
Target radii    : 83. km                                                       
Center geodetic : 0.0, 0.0, -6378.137             {E-lon(deg),Lat(deg),Alt(km)}
Center cylindric: 0.0, 0.0, 0.0                   {E-lon(deg),Dxy(km),Dz(km)}
Center pole/equ : ITRF93                          {East-longitude positive}
Center radii    : 6378.137, 6378.137, 6356.752 km {Equator_a, b, pole_c}       
Target primary  : Sun
Vis. interferer : MOON (R_eq= 1737.400) km        {source: DE441}
Rel. light bend : Sun                             {source: DE441}
Rel. lght bnd GM: 1.3271E+11 km^3/s^2                                          
Small-body perts: Yes                             {source: SB441-N16}
Atmos refraction: NO (AIRLESS)
RA format       : DEG
Time format     : CAL 
Calendar mode   : Mixed Julian/Gregorian
EOP file        : eop.260710.p261006                                           
EOP coverage    : DATA-BASED 1962-JAN-20 TO 2026-JUL-10. PREDICTS-> 2026-OCT-05
Units conversion: 1 au= 149597870.700 km, c= 299792.458 km/s, 1 day= 86400.0 s 
Table cut-offs 1: Elevation (-90.0deg=NO ),Airmass (>38.000=NO), Daylight (NO )
Table cut-offs 2: Solar elongation (  0.0,180.0=NO ),Local Hour Angle( 0.0=NO )
Table cut-offs 3: RA/DEC angular rate (     0.0=NO )                           
*******************************************************************************
Initial IAU76/J2000 heliocentric ecliptic osculating elements (au, days, deg.):
  EPOCH=  2457916.5 ! 2017-Jun-12.00 (TDB)         Residual RMS= .19933        
   EC= .3824171374703196   QR= 8.427522999110739   TP= 2450143.7110841358      
   OM= 209.2011323125998   W=  339.6529896907077   IN= 6.94959060447848        
  Equivalent ICRF heliocentric cartesian coordinates (au, au/d):
   X= 1.843374627977423E+01  Y=-1.877818593473934E+00  Z= 5.548833989583914E-01
  VX= 7.316266023833624E-04 VY= 2.960187278972600E-03 VZ= 9.710586201315230E-04
Asteroid physical parameters (km, seconds, rotational period in hours):        
   GM= n.a.                RAD= 83.                ROTPER= 5.918               
   H= 5.54                 G= .150                 B-V= .704                   
                           ALBEDO= .150            STYP= Cb                    
*******************************************************************************
 Date__(UT)__HR:MN        ObsEcLon    ObsEcLat
**********************************************
$$SOE
 1907-May-15 00:00     318.2041040   6.7019785
 1907-May-17 00:00     318.2216911   6.7158492
 1907-May-19 00:00     318.2349052   6.7297134
 1907-May-21 00:00     318.2437304   6.7435524
 1907-May-23 00:00     318.2481767   6.7573478
 1907-May-25 00:00     318.2482876   6.7710815
 1907-May-27 00:00     318.2441330   6.7847360
 1907-May-29 00:00     318.2357567   6.7982950
 1907-May-31 00:00     318.2231295   6.8117424
 1907-Jun-02 00:00     318.2062023   6.8250622
 1907-Jun-04 00:00     318.1849828   6.8382367
 1907-Jun-06 00:00     318.1595348   6.8512474
 1907-Jun-08 00:00     318.1299368   6.8640747
 1907-Jun-10 00:00     318.0962552   6.8766981
 1907-Jun-12 00:00     318.0585398   6.8890973
 1907-Jun-14 00:00     318.0168329   6.9012514
 1907-Jun-16 00:00     317.9711831   6.9131402
 1907-Jun-18 00:00     317.9216583   6.9247437
 1907-Jun-20 00:00     317.8683569   6.9360426
 1907-Jun-22 00:00     317.8114083   6.9470185
 1907-Jun-24 00:00     317.7509570   6.9576545
 1907-Jun-26 00:00     317.6871100   6.9679346
 1907-Jun-28 00:00     317.6199028   6.9778442
 1907-Jun-30 00:00     317.5493691   6.9873681
 1907-Jul-02 00:00     317.4756149   6.9964907
 1907-Jul-04 00:00     317.3987955   7.0051954
 1907-Jul-06 00:00     317.3190663   7.0134651
 1907-Jul-08 00:00     317.2365646   7.0212829
 1907-Jul-10 00:00     317.1514125   7.0286325
 1907-Jul-12 00:00     317.0637293   7.0354980
 1907-Jul-14 00:00     316.9736443   7.0418646
 1907-Jul-16 00:00     316.8813094   7.0477186
 1907-Jul-18 00:00     316.7869062   7.0530478
 1907-Jul-20 00:00     316.6906402   7.0578416
 1907-Jul-22 00:00     316.5927141   7.0620912
 1907-Jul-24 00:00     316.4932822   7.0657894
 1907-Jul-26 00:00     316.3924368   7.0689306
 1907-Jul-28 00:00     316.2902843   7.0715092
 1907-Jul-30 00:00     316.1870068   7.0735194
 1907-Aug-01 00:00     316.0828213   7.0749547
 1907-Aug-03 00:00     315.9779298   7.0758091
 1907-Aug-05 00:00     315.8725100   7.0760774
 1907-Aug-07 00:00     315.7667251   7.0757552
 1907-Aug-09 00:00     315.6607364   7.0748395
 1907-Aug-11 00:00     315.5547160   7.0733286
 1907-Aug-13 00:00     315.4488585   7.0712225
 1907-Aug-15 00:00     315.3433835   7.0685231
 1907-Aug-17 00:00     315.2385198   7.0652339
 1907-Aug-19 00:00     315.1344725   7.0613607
 1907-Aug-21 00:00     315.0313892   7.0569107
 1907-Aug-23 00:00     314.9293726   7.0518923
 1907-Aug-25 00:00     314.8285524   7.0463140
 1907-Aug-27 00:00     314.7291249   7.0401838
 1907-Aug-29 00:00     314.6313037   7.0335097
 1907-Aug-31 00:00     314.5352731   7.0262998
 1907-Sep-02 00:00     314.4411886   7.0185628
 1907-Sep-04 00:00     314.3491914   7.0103088
 1907-Sep-06 00:00     314.2594212   7.0015487
 1907-Sep-08 00:00     314.1720281   6.9922947
 1907-Sep-10 00:00     314.0871835   6.9825604
 1907-Sep-12 00:00     314.0050768   6.9723610
 1907-Sep-14 00:00     313.9258895   6.9617130
 1907-Sep-16 00:00     313.8497582   6.9506346
 1907-Sep-18 00:00     313.7767614   6.9391445
 1907-Sep-20 00:00     313.7069560   6.9272618
 1907-Sep-22 00:00     313.6404371   6.9150051
 1907-Sep-24 00:00     313.5773503   6.9023922
 1907-Sep-26 00:00     313.5178410   6.8894401
 1907-Sep-28 00:00     313.4620171   6.8761659
 1907-Sep-30 00:00     313.4099565   6.8625866
 1907-Oct-02 00:00     313.3617263   6.8487201
 1907-Oct-04 00:00     313.3173946   6.8345845
 1907-Oct-06 00:00     313.2770414   6.8201988
 1907-Oct-08 00:00     313.2407674   6.8055825
 1907-Oct-10 00:00     313.2086861   6.7907563
 1907-Oct-12 00:00     313.1808859   6.7757415
 1907-Oct-14 00:00     313.1573951   6.7605601
 1907-Oct-16 00:00     313.1381935   6.7452340
 1907-Oct-18 00:00     313.1232678   6.7297843
 1907-Oct-20 00:00     313.1126510   6.7142311
 1907-Oct-22 00:00     313.1064080   6.6985932
 1907-Oct-24 00:00     313.1045892   6.6828882
 1907-Oct-26 00:00     313.1072071   6.6671334
 1907-Oct-28 00:00     313.1142478   6.6513457
 1907-Oct-30 00:00     313.1256925   6.6355424
 1907-Nov-01 00:00     313.1415291   6.6197404
 1907-Nov-03 00:00     313.1617605   6.6039571
 1907-Nov-05 00:00     313.1864107   6.5882102
 1907-Nov-07 00:00     313.2155118   6.5725178
 1907-Nov-09 00:00     313.2490575   6.5568986
 1907-Nov-11 00:00     313.2869714   6.5413711
 1907-Nov-13 00:00     313.3291477   6.5259534
 1907-Nov-15 00:00     313.3755161   6.5106620
 1907-Nov-17 00:00     313.4260545   6.4955122
 1907-Nov-19 00:00     313.4807540   6.4805178
 1907-Nov-21 00:00     313.5395819   6.4656917
 1907-Nov-23 00:00     313.6024715   6.4510461
 1907-Nov-25 00:00     313.6693373   6.4365929
 1907-Nov-27 00:00     313.7400955   6.4223437
 1907-Nov-29 00:00     313.8146753   6.4083104
 1907-Dec-01 00:00     313.8930247   6.3945048
 1907-Dec-03 00:00     313.9751112   6.3809387
 1907-Dec-05 00:00     314.0609051   6.3676247
 1907-Dec-07 00:00     314.1503288   6.3545753
 1907-Dec-09 00:00     314.2432316   6.3418034
 1907-Dec-11 00:00     314.3394553   6.3293205
 1907-Dec-13 00:00     314.4389012   6.3171368
 1907-Dec-15 00:00     314.5415137   6.3052610
 1907-Dec-17 00:00     314.6472326   6.2937006
 1907-Dec-19 00:00     314.7559685   6.2824625
 1907-Dec-21 00:00     314.8676052   6.2715526
 1907-Dec-23 00:00     314.9820164   6.2609771
 1907-Dec-25 00:00     315.0990836   6.2507417
 1907-Dec-27 00:00     315.2187066   6.2408526
 1907-Dec-29 00:00     315.3408060   6.2313157
 1907-Dec-31 00:00     315.4653184   6.2221374
 1908-Jan-02 00:00     315.5921750   6.2133243
 1908-Jan-04 00:00     315.7212539   6.2048837
 1908-Jan-06 00:00     315.8523652   6.1968225
 1908-Jan-08 00:00     315.9853318   6.1891467
 1908-Jan-10 00:00     316.1200518   6.1818609
 1908-Jan-12 00:00     316.2564553   6.1749680
 1908-Jan-14 00:00     316.3944523   6.1684703
 1908-Jan-16 00:00     316.5339224   6.1623691
 1908-Jan-18 00:00     316.6747266   6.1566658
 1908-Jan-20 00:00     316.8167242   6.1513615
 1908-Jan-22 00:00     316.9597879   6.1464575
 1908-Jan-24 00:00     317.1038124   6.1419550
 1908-Jan-26 00:00     317.2487132   6.1378557
 1908-Jan-28 00:00     317.3944148   6.1341617
 1908-Jan-30 00:00     317.5408257   6.1308755
 1908-Feb-01 00:00     317.6878003   6.1279998
 1908-Feb-03 00:00     317.8351389   6.1255375
 1908-Feb-05 00:00     317.9826717   6.1234898
 1908-Feb-07 00:00     318.1303077   6.1218557
 1908-Feb-09 00:00     318.2779761   6.1206315
 1908-Feb-11 00:00     318.4255760   6.1198145
 1908-Feb-13 00:00     318.5729768   6.1194041
 1908-Feb-15 00:00     318.7200357   6.1193993
 1908-Feb-17 00:00     318.8666163   6.1197981
 1908-Feb-19 00:00     319.0125998   6.1205976
 1908-Feb-21 00:00     319.1578924   6.1217954
 1908-Feb-23 00:00     319.3024191   6.1233893
 1908-Feb-25 00:00     319.4461041   6.1253777
